ONEWEB-0255             
1 48973U 21060G   25211.19705506  .00000028  00000+0  38929-4 0  9998
2 48973  87.9044 292.9753 0002074  90.7655 269.3713 13.16595709198585
ONEWEB-0256             
1 48974U 21060H   25210.76718669  .00000040  00000+0  70007-4 0  9992
2 48974  87.9044 293.0718 0002086 101.4967 258.6398 13.16596034197208
ONEWEB-0257             
1 48975U 21060J   25210.79965284 -.00000029  00000+0 -11005-3 0  9994
2 48975  87.9048 293.0316 0002191  94.6989 265.4392 13.16595485197165
ONEWEB-0258             
1 48976U 21060K   25211.48521144 -.00000012  00000+0 -65785-4 0  9992
2 48976  87.9044 292.9200 0001922  97.4131 262.7218 13.16593598198546
ONEWEB-0259             
1 48977U 21060L   25210.79490273 -.00000049  00000+0 -16157-3 0  9992
2 48977  87.9048 293.0420 0002026  93.8329 266.3033 13.16595600197205
ONEWEB-0260             
1 48978U 21060M   25210.93818055 -.00000017  00000+0 -78060-4 0  9998
2 48978  87.9043 293.0393 0002466 105.1514 254.9890 13.16596697197202
ONEWEB-0261             
1 48979U 21060N   25210.75611523  .00000131  00000+0  30922-3 0  9999
2 48979  87.9044 293.0770 0002376  92.3712 267.7691 13.16593891197237
ONEWEB-0262             
1 48980U 21060P   25210.73633379 -.00000003  00000+0 -41574-4 0  9998
2 48980  87.9049 293.0427 0001903  88.7918 271.3431 13.16593236197196
ONEWEB-0263             
1 48981U 21060Q   25211.22398491  .00000176  00000+0  42744-3 0  9995
2 48981  87.9046 292.9697 0002242  86.9997 273.1391 13.16594829198527
ONEWEB-0264             
1 48982U 21060R   25211.18517127 -.00000243  00000+0 -66847-3 0  9997
2 48982  87.9044 292.9824 0002070  95.9950 264.1416 13.16593729198511
ONEWEB-0266             
1 48984U 21060T   25210.67457724  .00000098  00000+0  22399-3 0  9998
2 48984  87.9048 293.0591 0001806  97.3407 262.7929 13.16593148197145
ONEWEB-0267             
1 48985U 21060U   25211.52162719  .00000174  00000+0  42083-3 0  9998
2 48985  87.9047 292.8928 0002238  93.3611 266.7776 13.16593427198559
ONEWEB-0268             
1 48986U 21060V   25211.48996122 -.00000052  00000+0 -16956-3 0  9994
2 48986  87.9049 292.9049 0002145  99.8453 260.2920 13.16595612198816
ONEWEB-0269             
1 48987U 21060W   25211.24296481  .00000023  00000+0  25301-4 0  9991
2 48987  87.9044 292.9867 0002013 100.0523 260.0835 13.16596300198567
ONEWEB-0270             
1 48988U 21060X   25210.72840383 -.00000015  00000+0 -72432-4 0  9990
2 48988  87.9045 293.0592 0002201  86.6295 273.5088 13.16595974197238
ONEWEB-0271             
1 48989U 21060Y   25210.79173876 -.00000089  00000+0 -26590-3 0  9998
2 48989  87.9049 293.0298 0002236  93.2699 266.8688 13.16593240197242
ONEWEB-0272             
1 48990U 21060Z   25211.19389542  .00000044  00000+0  80565-4 0  9996
2 48990  87.9045 292.9798 0002299  96.8362 263.3031 13.16599099198544
