[{"OBJECT_NAME":"ONEWEB-0255","OBJECT_ID":"2021-060G","EPOCH":"2025-07-30T04:43:45.557184","MEAN_MOTION":13.16595709,"ECCENTRICITY":0.0002074,"INCLINATION":87.9044,"RA_OF_ASC_NODE":292.9753,"ARG_OF_PERICENTER":90.7655,"MEAN_ANOMALY":269.3713,"EPHEMERIS_TYPE":0,"CLASSIFICATION_TYPE":"U","NORAD_CAT_ID":48973,"ELEMENT_SET_NO":999,"REV_AT_EPOCH":19858,"BSTAR":3.8929e-5,"MEAN_MOTION_DOT":2.8e-7,"MEAN_MOTION_DDOT":0},{"OBJECT_NAME":"ONEWEB-0256","OBJECT_ID":"2021-060H","EPOCH":"2025-07-29T18:24:44.930016","MEAN_MOTION":13.16596034,"ECCENTRICITY":0.0002086,"INCLINATION":87.9044,"RA_OF_ASC_NODE":293.0718,"ARG_OF_PERICENTER":101.4967,"MEAN_ANOMALY":258.6398,"EPHEMERIS_TYPE":0,"CLASSIFICATION_TYPE":"U","NORAD_CAT_ID":48974,"ELEMENT_SET_NO":999,"REV_AT_EPOCH":19720,"BSTAR":7.0007e-5,"MEAN_MOTION_DOT":4.0e-7,"MEAN_MOTION_DDOT":0},{"OBJECT_NAME":"ONEWEB-0257","OBJECT_ID":"2021-060J","EPOCH":"2025-07-29T19:11:30.005376","MEAN_MOTION":13.16595485,"ECCENTRICITY":0.0002191,"INCLINATION":87.9048,"RA_OF_ASC_NODE":293.0316,"ARG_OF_PERICENTER":94.6989,"MEAN_ANOMALY":265.4392,"EPHEMERIS_TYPE":0,"CLASSIFICATION_TYPE":"U","NORAD_CAT_ID":48975,"ELEMENT_SET_NO":999,"REV_AT_EPOCH":19716,"BSTAR":-0.00011005,"MEAN_MOTION_DOT":-2.9e-7,"MEAN_MOTION_DDOT":0},{"OBJECT_NAME":"ONEWEB-0258","OBJECT_ID":"2021-060K","EPOCH":"2025-07-30T11:38:42.268416","MEAN_MOTION":13.16593598,"ECCENTRICITY":0.0001922,"INCLINATION":87.9044,"RA_OF_ASC_NODE":292.92,"ARG_OF_PERICENTER":97.4131,"MEAN_ANOMALY":262.7218,"EPHEMERIS_TYPE":0,"CLASSIFICATION_TYPE":"U","NORAD_CAT_ID":48976,"ELEMENT_SET_NO":999,"REV_AT_EPOCH":19854,"BSTAR":-6.5785e-5,"MEAN_MOTION_DOT":-1.2e-7,"MEAN_MOTION_DDOT":0},{"OBJECT_NAME":"ONEWEB-0259","OBJECT_ID":"2021-060L","EPOCH":"2025-07-29T19:04:39.595872","MEAN_MOTION":13.165956,"ECCENTRICITY":0.0002026,"INCLINATION":87.9048,"RA_OF_ASC_NODE":293.042,"ARG_OF_PERICENTER":93.8329,"MEAN_ANOMALY":266.3033,"EPHEMERIS_TYPE":0,"CLASSIFICATION_TYPE":"U","NORAD_CAT_ID":48977,"ELEMENT_SET_NO":999,"REV_AT_EPOCH":19720,"BSTAR":-0.00016157,"MEAN_MOTION_DOT":-4.9e-7,"MEAN_MOTION_DDOT":0},{"OBJECT_NAME":"ONEWEB-0260","OBJECT_ID":"2021-060M","EPOCH":"2025-07-29T22:30:58.799520","MEAN_MOTION":13.16596697,"ECCENTRICITY":0.0002466,"INCLINATION":87.9043,"RA_OF_ASC_NODE":293.0393,"ARG_OF_PERICENTER":105.1514,"MEAN_ANOMALY":254.989,"EPHEMERIS_TYPE":0,"CLASSIFICATION_TYPE":"U","NORAD_CAT_ID":48978,"ELEMENT_SET_NO":999,"REV_AT_EPOCH":19720,"BSTAR":-7.806e-5,"MEAN_MOTION_DOT":-1.7e-7,"MEAN_MOTION_DDOT":0},{"OBJECT_NAME":"ONEWEB-0261","OBJECT_ID":"2021-060N","EPOCH":"2025-07-29T18:08:48.355872","MEAN_MOTION":13.16593891,"ECCENTRICITY":0.0002376,"INCLINATION":87.9044,"RA_OF_ASC_NODE":293.077,"ARG_OF_PERICENTER":92.3712,"MEAN_ANOMALY":267.7691,"EPHEMERIS_TYPE":0,"CLASSIFICATION_TYPE":"U","NORAD_CAT_ID":48979,"ELEMENT_SET_NO":999,"REV_AT_EPOCH":19723,"BSTAR":0.00030922,"MEAN_MOTION_DOT":1.31e-6,"MEAN_MOTION_DDOT":0},{"OBJECT_NAME":"ONEWEB-0262","OBJECT_ID":"2021-060P","EPOCH":"2025-07-29T17:40:19.239456","MEAN_MOTION":13.16593236,"ECCENTRICITY":0.0001903,"INCLINATION":87.9049,"RA_OF_ASC_NODE":293.0427,"ARG_OF_PERICENTER":88.7918,"MEAN_ANOMALY":271.3431,"EPHEMERIS_TYPE":0,"CLASSIFICATION_TYPE":"U","NORAD_CAT_ID":48980,"ELEMENT_SET_NO":999,"REV_AT_EPOCH":19719,"BSTAR":-4.1574e-5,"MEAN_MOTION_DOT":-3.0e-8,"MEAN_MOTION_DDOT":0},{"OBJECT_NAME":"ONEWEB-0263","OBJECT_ID":"2021-060Q","EPOCH":"2025-07-30T05:22:32.296224","MEAN_MOTION":13.16594829,"ECCENTRICITY":0.0002242,"INCLINATION":87.9046,"RA_OF_ASC_NODE":292.9697,"ARG_OF_PERICENTER":86.9997,"MEAN_ANOMALY":273.1391,"EPHEMERIS_TYPE":0,"CLASSIFICATION_TYPE":"U","NORAD_CAT_ID":48981,"ELEMENT_SET_NO":999,"REV_AT_EPOCH":19852,"BSTAR":0.00042744,"MEAN_MOTION_DOT":1.76e-6,"MEAN_MOTION_DDOT":0},{"OBJECT_NAME":"ONEWEB-0264","OBJECT_ID":"2021-060R","EPOCH":"2025-07-30T04:26:38.797728","MEAN_MOTION":13.16593729,"ECCENTRICITY":0.000207,"INCLINATION":87.9044,"RA_OF_ASC_NODE":292.9824,"ARG_OF_PERICENTER":95.995,"MEAN_ANOMALY":264.1416,"EPHEMERIS_TYPE":0,"CLASSIFICATION_TYPE":"U","NORAD_CAT_ID":48982,"ELEMENT_SET_NO":999,"REV_AT_EPOCH":19851,"BSTAR":-0.00066847,"MEAN_MOTION_DOT":-2.43e-6,"MEAN_MOTION_DDOT":0},{"OBJECT_NAME":"ONEWEB-0266","OBJECT_ID":"2021-060T","EPOCH":"2025-07-29T16:11:23.473536","MEAN_MOTION":13.16593148,"ECCENTRICITY":0.0001806,"INCLINATION":87.9048,"RA_OF_ASC_NODE":293.0591,"ARG_OF_PERICENTER":97.3407,"MEAN_ANOMALY":262.7929,"EPHEMERIS_TYPE":0,"CLASSIFICATION_TYPE":"U","NORAD_CAT_ID":48984,"ELEMENT_SET_NO":999,"REV_AT_EPOCH":19714,"BSTAR":0.00022399,"MEAN_MOTION_DOT":9.8e-7,"MEAN_MOTION_DDOT":0},{"OBJECT_NAME":"ONEWEB-0267","OBJECT_ID":"2021-060U","EPOCH":"2025-07-30T12:31:08.589216","MEAN_MOTION":13.16593427,"ECCENTRICITY":0.0002238,"INCLINATION":87.9047,"RA_OF_ASC_NODE":292.8928,"ARG_OF_PERICENTER":93.3611,"MEAN_ANOMALY":266.7776,"EPHEMERIS_TYPE":0,"CLASSIFICATION_TYPE":"U","NORAD_CAT_ID":48985,"ELEMENT_SET_NO":999,"REV_AT_EPOCH":19855,"BSTAR":0.00042083,"MEAN_MOTION_DOT":1.74e-6,"MEAN_MOTION_DDOT":0},{"OBJECT_NAME":"ONEWEB-0268","OBJECT_ID":"2021-060V","EPOCH":"2025-07-30T11:45:32.649408","MEAN_MOTION":13.16595612,"ECCENTRICITY":0.0002145,"INCLINATION":87.9049,"RA_OF_ASC_NODE":292.9049,"ARG_OF_PERICENTER":99.8453,"MEAN_ANOMALY":260.292,"EPHEMERIS_TYPE":0,"CLASSIFICATION_TYPE":"U","NORAD_CAT_ID":48986,"ELEMENT_SET_NO":999,"REV_AT_EPOCH":19881,"BSTAR":-0.00016956,"MEAN_MOTION_DOT":-5.2e-7,"MEAN_MOTION_DDOT":0},{"OBJECT_NAME":"ONEWEB-0269","OBJECT_ID":"2021-060W","EPOCH":"2025-07-30T05:49:52.159584","MEAN_MOTION":13.165963,"ECCENTRICITY":0.0002013,"INCLINATION":87.9044,"RA_OF_ASC_NODE":292.9867,"ARG_OF_PERICENTER":100.0523,"MEAN_ANOMALY":260.0835,"EPHEMERIS_TYPE":0,"CLASSIFICATION_TYPE":"U","NORAD_CAT_ID":48987,"ELEMENT_SET_NO":999,"REV_AT_EPOCH":19856,"BSTAR":2.5301e-5,"MEAN_MOTION_DOT":2.3e-7,"MEAN_MOTION_DDOT":0},{"OBJECT_NAME":"ONEWEB-0270","OBJECT_ID":"2021-060X","EPOCH":"2025-07-29T17:28:54.090912","MEAN_MOTION":13.16595974,"ECCENTRICITY":0.0002201,"INCLINATION":87.9045,"RA_OF_ASC_NODE":293.0592,"ARG_OF_PERICENTER":86.6295,"MEAN_ANOMALY":273.5088,"EPHEMERIS_TYPE":0,"CLASSIFICATION_TYPE":"U","NORAD_CAT_ID":48988,"ELEMENT_SET_NO":999,"REV_AT_EPOCH":19723,"BSTAR":-7.2432e-5,"MEAN_MOTION_DOT":-1.5e-7,"MEAN_MOTION_DDOT":0},{"OBJECT_NAME":"ONEWEB-0271","OBJECT_ID":"2021-060Y","EPOCH":"2025-07-29T19:00:06.228864","MEAN_MOTION":13.1659324,"ECCENTRICITY":0.0002236,"INCLINATION":87.9049,"RA_OF_ASC_NODE":293.0298,"ARG_OF_PERICENTER":93.2699,"MEAN_ANOMALY":266.8688,"EPHEMERIS_TYPE":0,"CLASSIFICATION_TYPE":"U","NORAD_CAT_ID":48989,"ELEMENT_SET_NO":999,"REV_AT_EPOCH":19724,"BSTAR":-0.0002659,"MEAN_MOTION_DOT":-8.9e-7,"MEAN_MOTION_DDOT":0},{"OBJECT_NAME":"ONEWEB-0272","OBJECT_ID":"2021-060Z","EPOCH":"2025-07-30T04:39:12.564288","MEAN_MOTION":13.16599099,"ECCENTRICITY":0.0002299,"INCLINATION":87.9045,"RA_OF_ASC_NODE":292.9798,"ARG_OF_PERICENTER":96.8362,"MEAN_ANOMALY":263.3031,"EPHEMERIS_TYPE":0,"CLASSIFICATION_TYPE":"U","NORAD_CAT_ID":48990,"ELEMENT_SET_NO":999,"REV_AT_EPOCH":19854,"BSTAR":8.0565e-5,"MEAN_MOTION_DOT":4.4e-7,"MEAN_MOTION_DDOT":0}]
